SOYUZ-MS 28             
1 66664U 25275A   26008.50004492  .00009772  00000+0  18407-3 0  9996
2 66664  51.6332   9.9851 0007637 355.2000   4.8914 15.49175445  1282
1998-067XS              
1 66906U 98067XS  26008.39834359  .00031640  00000+0  51873-3 0  9997
2 66906  51.6320  10.0577 0002378 343.3805  16.7107 15.52163170  5752
1998-067XT              
1 66907U 98067XT  26008.29800253  .00086828  00000+0  12427-2 0  9992
2 66907  51.6314  10.1378 0003783  28.5335 331.5862 15.55450029  5747
1998-067XU              
1 66908U 98067XU  26008.23271642  .00084820  00000+0  12155-2 0  9999
2 66908  51.6306  10.4506 0003743  23.8255 336.2909 15.55427969  5730
SILVERSAT               
1 66909U 98067XV  26008.41968089  .00098499  00000+0  13758-2 0  9995
2 66909  51.6311   9.4496 0003890  34.0786 326.0455 15.56054415  5768
1998-067XW              
1 66910U 98067XW  26008.41979979  .00091720  00000+0  12968-2 0  9999
2 66910  51.6298   9.4491 0002831   7.5526 352.5507 15.55759608  5767
1998-067XX              
1 66911U 98067XX  26008.28057096  .00104970  00000+0  14300-2 0  9996
2 66911  51.6304  10.0198 0002889  22.2938 337.8179 15.56701040  5738
1998-067XY              
1 66912U 98067XY  26008.69689417  .00065951  00000+0  98925-3 0  9991
2 66912  51.6311   8.3012 0003647  15.0558 345.0541 15.54289718  5794
